{"type": "FeatureCollection", "name": "regions_onshore_elec_s_10", "crs": {"type": "name", "properties": {"name": "urn:ogc:def:crs:OGC:1.3:CRS84"}}, "features": [{"type": "Feature", "properties": {"name": "BG.10_1_AC", "x": 23.35, "y": 43.4575, "country": "BG"}, "geometry": {"type": "Polygon", "coordinates": [[[23.32552528399998, 43.300884248000045], [23.33925247200017, 43.27956008900003], [23.454307556, 43.2447395320001], [23.454813003000027, 43.21545791700004], [23.402862548000144, 43.19905853400019], [23.420587539000053, 43.15856933600014], [23.352621079000073, 43.16159057599998], [23.307392120000145, 43.119709016], [23.137201310000023, 43.1068954480001], [23.026302338000164, 43.195762634000175], [22.916034698000146, 43.19230651999999], [22.87393951400003, 43.21421051100003], [22.825067521000165, 43.26541137800007], [22.802654266000104, 43.320713044], [22.71380806000019, 43.38012695400005], [22.78929901200013, 43.437320709000176], [22.788909912000122, 43.48694610600006], [22.85657692000018, 43.51505279600019], [22.907421112000122, 43.575881959000185], [22.924043656000038, 43.670528412000124], [23.043134689000112, 43.71063232400007], [23.01701355000006, 43.74684143000019], [22.95251464800009, 43.75874710100004], [22.958307267, 43.787040710999975], [23.132270813000048, 43.805652618000124], [23.269302367000137, 43.84714889500009], [23.416744231, 43.85313034100011], [23.622781754000016, 43.79138565000005], [23.633750915000178, 43.74383544900007], [23.593366623000065, 43.68304061800012], [23.586353302000077, 43.64249038800017], [23.548549652000133, 43.59832763600008], [23.62725067100007, 43.531234742000095], [23.575986863000026, 43.52796554600013], [23.542112351000185, 43.50184249900008], [23.435199738000165, 43.51043319700017], [23.40190887400007, 43.4483528130001], [23.407981873000153, 43.39268493700001], [23.32552528399998, 43.300884248000045]]]}}, {"type": "Feature", "properties": {"name": "BG.11_1_AC", "x": 24.3176, "y": 42.1664, "country": "BG"}, "geometry": {"type": "Polygon", "coordinates": [[[23.80392456200019, 41.83073043800016], [23.754100800000174, 41.95856475800008], [23.81791877800009, 42.02199936000005], [23.789987564000057, 42.0370788570001], [23.784301757000094, 42.123188019000054], [23.756429671000035, 42.16476059000013], [23.865699769000116, 42.231010437000066], [23.881549834000168, 42.263843536000024], [23.938722611000117, 42.24441147000016], [23.995134354000186, 42.27300644000019], [23.991928101000042, 42.290748596000014], [23.944948197000087, 42.3018951410001], [23.950735091000183, 42.34057617100012], [23.96400261000008, 42.36737060600012], [24.044197083000086, 42.385742188000165], [24.07213783300017, 42.43876266500013], [24.06039238000011, 42.45623779300007], [24.011478425000064, 42.440494538000166], [23.968936919000043, 42.451042175000055], [23.91662025500017, 42.4888839730001], [23.894422530000156, 42.548023224000076], [23.97675323500016, 42.571384429000034], [24.046436000000142, 42.539528], [24.0903588380001, 42.56833641200018], [24.128190994000192, 42.56517028800005], [24.142224882000164, 42.6046940870001], [24.22554206799998, 42.62174606400009], [24.293802262000156, 42.603580475000115], [24.33551788400007, 42.54211807300004], [24.374992371000076, 42.5585899350001], [24.4078006740001, 42.549682617000144], [24.41254234400003, 42.527530671000136], [24.37065887400007, 42.470294952000074], [24.427019119000136, 42.41714096100009], [24.404989242000056, 42.39149856500012], [24.42768478300019, 42.34708404600008], [24.47426605300018, 42.31148529000018], [24.445287705000055, 42.28279495300018], [24.484296799, 42.22386932500007], [24.475454331000094, 42.19107055800009], [24.530679702000043, 42.168476104000035], [24.44411468500016, 42.121978760000104], [24.453466416000026, 42.09640884400005], [24.43395233200016, 42.05388259900013], [24.465381622000052, 42.000938416000054], [24.40807151900009, 41.87900924700017], [24.32205581600016, 41.806537629000104], [24.335273743000187, 41.75770187300009], [24.267690659000152, 41.720024110000054], [24.20139885000009, 41.735195161000036], [24.11335182100015, 41.72357177800012], [24.086059570000145, 41.66371917700013], [23.991666794000025, 41.724403382], [23.98006439300002, 41.74689483700013], [23.80392456200019, 41.83073043800016]]]}}, {"type": "Feature", "properties": {"name": "BG.12_1_AC", "x": 23.0102, "y": 42.5397, "country": "BG"}, "geometry": {"type": "Polygon", "coordinates": [[[23.08107376200013, 42.36993789700017], [22.98931121700008, 42.401596070000096], [22.922863006000057, 42.38146209700017], [22.915964127000052, 42.357536316], [22.844484328000078, 42.355987548000144], [22.831069947000117, 42.38182449400006], [22.80274391200004, 42.38374328599997], [22.79315185500019, 42.40418243400006], [22.73883247500015, 42.425098419], [22.704650878000166, 42.470733643000074], [22.701116562000095, 42.50832748400012], [22.607936859000063, 42.568058013000154], [22.59764862100019, 42.62065124500003], [22.514034271000128, 42.61455535900012], [22.433397292999985, 42.63443374600007], [22.456161499000075, 42.66030120800019], [22.439020156000083, 42.6746597290001], [22.48356247000015, 42.721534730000144], [22.42268562300012, 42.80361557100008], [22.492322921000152, 42.830604553000114], [22.522645950000083, 42.86668395900017], [22.558902741000168, 42.84267044100011], [22.568958281999983, 42.87150573700012], [22.601186752000103, 42.875595094000175], [22.66266059800006, 42.844783783000025], [22.68555450399998, 42.86808013900003], [22.740524292000032, 42.880935669], [22.76767921400011, 42.868721009000126], [22.774942397000018, 42.84590911800012], [22.850315094000052, 42.84919357400008], [22.86582756100006, 42.81908798100005], [22.905462265000097, 42.81448364300013], [22.9251880650001, 42.77968216], [22.971071243000097, 42.770675660000165], [22.997940064000034, 42.74232101400014], [23.031736375000094, 42.74210739200004], [23.039415360000135, 42.71837997500012], [23.099754333000078, 42.69166565], [23.119844436000108, 42.660305023000035], [23.166429519000133, 42.65051269500003], [23.1823463450001, 42.5948371880001], [23.159238815000094, 42.58156967100007], [23.217943191000018, 42.57411575400016], [23.24480438200004, 42.541938782000045], [23.276479721000157, 42.535686494000174], [23.28205299500013, 42.51664733900009], [23.22865104700014, 42.45028305200003], [23.249608994000027, 42.38037872400014], [23.193254471000103, 42.35143661500007], [23.13611793600012, 42.36687469600014], [23.1126632700001, 42.39854049700011], [23.08107376200013, 42.36993789700017]]]}}, {"type": "Feature", "properties": {"name": "BG.13_1_AC", "x": 24.1649, "y": 43.2679, "country": "BG"}, "geometry": {"type": "Polygon", "coordinates": [[[24.397537231000115, 43.29319381700009], [24.237096787000098, 43.25075149600019], [24.12853622500006, 43.25746917800018], [24.086717606000093, 43.22441864000007], [24.04855346700009, 43.21627426100008], [23.971471786000052, 43.241836548000094], [23.986904144000107, 43.31574630700004], [23.97715950000014, 43.354324342000155], [24.080530166000074, 43.445220947000166], [24.04146385300004, 43.48469543400017], [24.023180008000054, 43.53649139300006], [24.04683685200007, 43.606975556000066], [24.114353181000013, 43.62557602000004], [24.17512702900018, 43.611404419000166], [24.22173309300007, 43.66352081300016], [24.260553359000085, 43.64498520000018], [24.27174186600007, 43.6623764040001], [24.297218322000163, 43.651573181000174], [24.321138383000175, 43.700271608000094], [24.350111008000113, 43.69768142700008], [24.410110474000078, 43.73722839400011], [24.514421463000133, 43.76517105100004], [24.624588013000164, 43.742706299000076], [24.735860824000156, 43.68540954600019], [24.79995346000004, 43.70958328200015], [24.884061814000177, 43.70755386400009], [24.960857392000037, 43.730125427000075], [25.009235382000043, 43.724914550000165], [25.048730850000084, 43.69490432900017], [25.09759712200014, 43.68537521500008], [25.16875648399997, 43.700065613], [25.213109970000062, 43.690525056000126], [25.197088242000063, 43.64881134100011], [25.223821640000097, 43.62202835100004], [25.208778382000105, 43.569435120000094], [25.23369026200004, 43.54232788200005], [25.213985444000173, 43.51691436800019], [25.213693620000186, 43.476261139000144], [25.129875183000024, 43.443382263000046], [25.145929337000155, 43.42622756900016], [25.238431931000036, 43.42795944200003], [25.205886842000155, 43.378307343000074], [25.268747330000053, 43.37384796200013], [25.274776460000112, 43.3573799130001], [25.232963563000055, 43.311794282000164], [25.163953782000135, 43.28667831500013], [25.108713151000188, 43.31229782000008], [25.079362870000125, 43.37429428000013], [25.034639359000096, 43.39711380000011], [25.014328003000116, 43.349639893000074], [24.925598145000095, 43.29826736500013], [24.80907821699998, 43.326610566], [24.717386246000103, 43.291366577000076], [24.686714171000062, 43.258365631000174], [24.659275055000137, 43.27992248600009], [24.635129929000016, 43.23134994500009], [24.47171974200006, 43.238502502000074], [24.397537231000115, 43.29319381700009]]]}}, {"type": "Feature", "properties": {"name": "BG.14_1_AC", "x": 24.7948, "y": 42.1268, "country": "BG"}, "geometry": {"type": "Polygon", "coordinates": [[[24.975616454000146, 41.79841613800005], [24.994617462000065, 41.74221038900015], [24.97394561800013, 41.728916169000115], [24.903688431000035, 41.737869263000164], [24.89898300300007, 41.70987701400014], [24.848817825000026, 41.67056274500004], [24.804601670000068, 41.71277618500011], [24.818468095000128, 41.76158523500004], [24.795337676000088, 41.76029586700014], [24.79334640500008, 41.77907943700018], [24.775024414000143, 41.76967620900018], [24.762264251000147, 41.78910064700011], [24.800340653000035, 41.82676315400016], [24.788150787000063, 41.86759948800017], [24.681844711000053, 41.89708328200004], [24.558399200999986, 41.88084030100015], [24.503412247000142, 41.922325135000165], [24.462337494000053, 41.9178771980001], [24.43062210100004, 41.932991027000185], [24.465381622000052, 42.000938416000054], [24.43395233200016, 42.05388259900013], [24.453466416000026, 42.09640884400005], [24.44411468500016, 42.121978760000104], [24.530679702000043, 42.168476104000035], [24.475454331000094, 42.19107055800009], [24.484296799, 42.22386932500007], [24.445287705000055, 42.28279495300018], [24.47426605300018, 42.31148529000018], [24.42768478300019, 42.34708404600008], [24.404989242000056, 42.39149856500012], [24.427019119000136, 42.41714096100009], [24.37065887400007, 42.470294952000074], [24.414127350000115, 42.54251861600005], [24.449909210000044, 42.54733657899999], [24.49316787700019, 42.59232330300006], [24.362455368999974, 42.66241073700019], [24.35202217000017, 42.70125961300005], [24.382007598000087, 42.747055053000054], [24.46699333300006, 42.75093078700007], [24.504615783000077, 42.792392730000074], [24.634489059000146, 42.77933120800009], [24.68764114400011, 42.75266647400008], [24.69768714800017, 42.73005294899997], [24.811309815000072, 42.74139022800006], [24.939365388000112, 42.70632171700004], [25.036470413000075, 42.73534774700005], [25.04961776700003, 42.625820160000046], [25.024738311000135, 42.59063720600005], [25.056726455000046, 42.51419067400013], [25.127460479000035, 42.478858948000095], [25.197156905000156, 42.49160003800006], [25.226167679000127, 42.46960067700013], [25.18866539000004, 42.42851257400014], [25.240068436, 42.40271377500011], [25.237361909000185, 42.37901687699997], [25.14317321800013, 42.385543823000035], [25.15048790100019, 42.282768250000174], [25.216262818000132, 42.25391388000003], [25.114259720000177, 42.23814392100019], [25.097829818000037, 42.21588134799998], [25.10070991600014, 42.167079926000156], [25.11226463200012, 42.150436401000036], [25.178720473999988, 42.14251327500011], [25.30480384900011, 42.16366958600008], [25.349458694000134, 42.12417984100006], [25.376274109000065, 42.09362792900009], [25.33261108500011, 42.02285766600005], [25.346021653000037, 41.94802474900007], [25.292648315000122, 41.90134429900007], [25.214624406000098, 41.8690490730001], [25.151159287000155, 41.8190231320001], [25.132249831000024, 41.78344345200003], [25.07068252600004, 41.78667831400014], [25.028995513000098, 41.823410034000176], [24.975616454000146, 41.79841613800005]]]}}, {"type": "Feature", "properties": {"name": "BG.15_1_AC", "x": 26.5305, "y": 43.5326, "country": "BG"}, "geometry": {"type": "Polygon", "coordinates": [[[26.746578217000035, 43.47052001900016], [26.75397872900004, 43.43227386500001], [26.796104431000117, 43.416137696000135], [26.799381257, 43.389625549000016], [26.737247466999975, 43.37120437600004], [26.679307938000193, 43.38283538800016], [26.656215668000186, 43.347141266], [26.553882598000087, 43.37625122200018], [26.467992783000113, 43.367824555000084], [26.477428435000093, 43.35185623100011], [26.44539070100018, 43.332809449000194], [26.44606208800019, 43.28746032700019], [26.3884143840001, 43.276649475000056], [26.369829178000145, 43.297660827000016], [26.397542954000073, 43.31885910000011], [26.346483231000036, 43.33156967100007], [26.333578110000076, 43.36000061100003], [26.438924789000055, 43.40298462000004], [26.46794128300013, 43.42832946699997], [26.468864441000107, 43.459930421000024], [26.372255325000083, 43.46010971100014], [26.35515213000008, 43.50859451300005], [26.246311188000163, 43.57321548400006], [26.224311829000044, 43.57310867400014], [26.197370529000068, 43.54103469900008], [26.12293052600012, 43.53283309900007], [26.059883117000084, 43.59123230100016], [26.07206344499997, 43.6083564760001], [26.053642272000047, 43.64020538300019], [26.165401459000122, 43.6740570070001], [26.248039246000133, 43.66736602800012], [26.299633026000095, 43.640125275000116], [26.513975143000096, 43.65773391700009], [26.550378799000157, 43.70801925600006], [26.554691315000127, 43.754283906000126], [26.54143714899999, 43.7631683350001], [26.419115067000178, 43.808490754000104], [26.269725800000174, 43.79590225200019], [26.232982636000088, 43.82576370300012], [26.249141693000126, 43.854305268000076], [26.305793762000178, 43.86742782600015], [26.319833755000047, 43.91111374000019], [26.387628555, 43.95885467500011], [26.470642090000013, 43.95491409300001], [26.498647690000155, 43.93190765500003], [26.58205986100012, 43.94732284500003], [26.623979568000152, 43.89184188899998], [26.763488770000038, 43.852573395000036], [26.776988983000024, 43.83255767900005], [26.847209930000076, 43.85371017500012], [26.86796379000009, 43.819801331000065], [26.913444519000052, 43.798835754000095], [26.917692185000135, 43.768020630000194], [26.971038818000068, 43.75771713200015], [27.027961730000072, 43.69103241], [27.02575874400003, 43.66252136200018], [26.975481034000097, 43.64602279600001], [26.960796356000117, 43.61498641900005], [26.891098022000165, 43.62105941800007], [26.875101090000157, 43.589466095000034], [26.808418275000065, 43.552555084], [26.832441330999984, 43.53213882400007], [26.83391189499997, 43.5061874380001], [26.784324646000073, 43.49879455700011], [26.775539399000138, 43.47397613600003], [26.746578217000035, 43.47052001900016]]]}}, {"type": "Feature", "properties": {"name": "BG.16_1_AC", "x": 26.0278, "y": 43.7883, "country": "BG"}, "geometry": {"type": "Polygon", "coordinates": [[[25.956663132000074, 43.41603851400009], [26.027166366000188, 43.37178039500003], [26.026851654000097, 43.328037263000056], [25.96808433500013, 43.33494186400014], [25.942562104000103, 43.38174438500005], [25.785909653000033, 43.369396211000094], [25.717891694000173, 43.41273879900018], [25.67924118000019, 43.39624023400012], [25.579038620000176, 43.431541443000185], [25.589069367000093, 43.502635957000166], [25.543773652000027, 43.51031875700011], [25.5028514870001, 43.563800813000114], [25.494832992, 43.5886993420001], [25.532396317000178, 43.614246369000114], [25.503854752000052, 43.64589691200007], [25.564825059000157, 43.64516449000007], [25.66669082700014, 43.69012832700008], [25.781703949000075, 43.71071243200015], [25.813114166000048, 43.746055603000116], [25.88584518400006, 43.78376770000017], [25.94140625000017, 43.852130891], [26.04915618900003, 43.90484237600015], [26.116439819000163, 43.97438430800014], [26.193313599000135, 43.98348617600004], [26.344367980000072, 44.03437423600019], [26.39243698000007, 44.01037216200007], [26.373258591000138, 43.98167800900006], [26.387628555, 43.95885467500011], [26.319833755000047, 43.91111374000019], [26.305793762000178, 43.86742782600015], [26.247678757000074, 43.85336303700018], [26.23466873200016, 43.81711959800015], [26.269725800000174, 43.79590225200019], [26.419115067000178, 43.808490754000104], [26.455047607000154, 43.78556060700009], [26.520759583000142, 43.774524690000135], [26.554691315000127, 43.754283906000126], [26.527379989000053, 43.668647766000106], [26.48611450200019, 43.648860931000115], [26.299633026000095, 43.640125275000116], [26.248039246000133, 43.66736602800012], [26.165401459000122, 43.6740570070001], [26.055461884000124, 43.64189529500004], [26.07206344499997, 43.6083564760001], [26.059883117000084, 43.59123230100016], [26.11815452500008, 43.537124633000076], [26.04697227400004, 43.52481079100011], [26.038108826000155, 43.482925416000114], [26.001361847, 43.43416976900005], [25.956663132000074, 43.41603851400009]]]}}, {"type": "Feature", "properties": {"name": "BG.17_1_AC", "x": 27.0084, "y": 43.278, "country": "BG"}, "geometry": {"type": "Polygon", "coordinates": [[[26.98894309999997, 42.94657898000008], [26.788421631000062, 42.94543075600012], [26.723741532000076, 42.90900039700006], [26.64918136600005, 42.90681839000007], [26.64707756000007, 42.93755340500019], [26.560197831000096, 42.929870605000076], [26.535463332000177, 42.96880340700011], [26.62360382000014, 43.024959563000095], [26.61507606500004, 43.056713104000096], [26.651027680000084, 43.066120147000106], [26.653572082000096, 43.094528198000035], [26.6877670290001, 43.10253143300008], [26.665277480000157, 43.13909912200012], [26.67039871300011, 43.17636108500005], [26.71277236800006, 43.17400360200014], [26.724090576000037, 43.221229553000114], [26.77550697300012, 43.25718689000007], [26.77232170100018, 43.28107070900012], [26.740356446000078, 43.295406341000046], [26.736696244000143, 43.3133201600001], [26.772314071000096, 43.37920761100014], [26.803134918000183, 43.40367508000014], [26.75397872900004, 43.43227386500001], [26.74526214600013, 43.46855545000005], [26.775539399000138, 43.47397613600003], [26.781024934000072, 43.497409822], [26.83391189499997, 43.5061874380001], [26.83439445500011, 43.528205872000115], [26.81037139900019, 43.537788391000106], [26.81000900200013, 43.55447006300011], [26.875101090000157, 43.589466095000034], [26.891098022000165, 43.62105941800007], [26.96396255400009, 43.61690139900003], [26.97122764700015, 43.642894744000046], [27.02575874400003, 43.66252136200018], [27.027961730000072, 43.69103241], [27.00525093100009, 43.717433930000084], [27.0736255650001, 43.73600006200007], [27.106342316000166, 43.730976104000035], [27.154827118000128, 43.68277740500008], [27.293180466000138, 43.65810012900005], [27.32391548100003, 43.61433029300014], [27.40149497900012, 43.6311531070001], [27.422561646000133, 43.62085342400013], [27.440042495000114, 43.598606109000116], [27.42794418300008, 43.58595657400019], [27.32685470600012, 43.53838729900008], [27.330284119000112, 43.5209579480001], [27.360059737000142, 43.509166718000074], [27.333263397000053, 43.47916793900015], [27.361024857000075, 43.46572113000019], [27.302415848000066, 43.398689271000194], [27.3386192320001, 43.35770797800018], [27.31859779400014, 43.328853608000145], [27.26858902100014, 43.306316375000165], [27.319067001000178, 43.211383819000105], [27.268238067000084, 43.19532012900004], [27.187631607000185, 43.12666320900013], [27.198854446000155, 43.10633850100015], [27.240722655000184, 43.09583282400018], [27.258464814000092, 43.04872131399998], [27.089952470000128, 43.0255813600001], [27.10441017200003, 43.010791779000044], [27.09690856900005, 42.98798751800018], [27.13772964400016, 42.97849273600008], [27.129207612000073, 42.948867798000094], [27.034570695000014, 42.91685104499999], [26.98894309999997, 42.94657898000008]]]}}, {"type": "Feature", "properties": {"name": "BG.18_1_AC", "x": 27.294, "y": 43.9318, "country": "BG"}, "geometry": {"type": "Polygon", "coordinates": [[[27.307491302000074, 43.80418014500003], [27.220300675000146, 43.74549865700004], [27.21830368000019, 43.71937561100009], [27.251937866000105, 43.696567537000135], [27.24716949500015, 43.676586151000095], [27.154827118000128, 43.68277740500008], [27.095355988000108, 43.73561477700008], [27.00525093100009, 43.717433930000084], [26.971038818000068, 43.75771713200015], [26.921648026000128, 43.764568328], [26.913444519000052, 43.798835754000095], [26.86796379000009, 43.819801331000065], [26.847209930000076, 43.85371017500012], [26.776988983000024, 43.83255767900005], [26.763488770000038, 43.852573395000036], [26.623979568000152, 43.89184188899998], [26.58566093400009, 43.9464035040001], [26.498647690000155, 43.93190765500003], [26.470642090000013, 43.95491409300001], [26.387628555, 43.95885467500011], [26.373258591000138, 43.98167800900006], [26.39477157700003, 44.00841522200017], [26.344367980000072, 44.03437423600019], [26.44668388400015, 44.03403091500013], [26.76429367000003, 44.07815170300012], [26.90819168100012, 44.13361358600008], [27.13537216100002, 44.14086532600004], [27.218757629000038, 44.11695861800018], [27.277559281000038, 44.124576568000066], [27.29266548200013, 44.07545089800004], [27.357645034000086, 44.05898666400003], [27.400905609000063, 44.012645721000126], [27.470239640000102, 44.02277755800009], [27.613420487000155, 44.012481690000186], [27.644994736000058, 44.048202514000025], [27.67512512100018, 44.03007507400014], [27.72515106200018, 43.956661225000175], [27.68381309500012, 43.98548126300017], [27.625215530000048, 43.97912216200007], [27.58492660400003, 43.93265533500005], [27.593584060000126, 43.910049438000044], [27.5578975680001, 43.899505616], [27.519918443000165, 43.91251754800015], [27.48466873100017, 43.84580230700004], [27.42837142999997, 43.86822891300005], [27.364683151000065, 43.81947708100006], [27.307491302000074, 43.80418014500003]]]}}, {"type": "Feature", "properties": {"name": "BG.19_1_AC", "x": 26.0024, "y": 42.4873, "country": "BG"}, "geometry": {"type": "Polygon", "coordinates": [[[26.224870681000084, 42.45159149300002], [26.228118897000115, 42.42008209200003], [26.189617156000054, 42.424728394000056], [26.184930801000178, 42.41152572600009], [26.208408356, 42.376129150000054], [26.243453979000094, 42.39233398400006], [26.251276016000077, 42.377658844000166], [26.178983688000073, 42.2395629880001], [26.09345436000018, 42.261974335], [26.05754089400017, 42.24901962300015], [26.05549621600011, 42.2705802910001], [26.019515990000116, 42.27522659400006], [25.995782853000094, 42.30491256700003], [25.95938491800007, 42.3188972480001], [25.920951844000115, 42.40507888800016], [25.888307572000087, 42.429336548000094], [25.915094375000137, 42.469085693000125], [25.86649322500017, 42.544834137000066], [25.92041206400006, 42.5791893], [25.881843567000033, 42.62413024800003], [25.841333388000066, 42.77889633300009], [25.904899597000053, 42.76953506400014], [25.995983125000123, 42.79042053300009], [26.08327865600006, 42.84643936300006], [26.082122804000164, 42.885002137000015], [26.15966415500003, 42.91460037200005], [26.19936752300009, 42.95781707700007], [26.266210555000043, 42.988178252000125], [26.29597282499998, 43.046203614000035], [26.35761642400007, 43.052143097000055], [26.3594760900001, 43.01279449600014], [26.395046235, 43.03374862700008], [26.43904495200013, 43.009788513], [26.55010032600012, 43.01366424600013], [26.57040786700003, 42.99767685], [26.535820007000098, 42.97304153500016], [26.53956413200001, 42.946880342000156], [26.58514213500007, 42.92785263000019], [26.576055527000165, 42.89477539000018], [26.598480225000174, 42.858646393000186], [26.58406066900011, 42.81066131600011], [26.642490387000066, 42.79255676300005], [26.709436417000177, 42.735370636000084], [26.69883918800008, 42.71298599200014], [26.665117263000127, 42.71802902300004], [26.672084809000182, 42.65584945700016], [26.655580521000104, 42.63306045600012], [26.630594253000027, 42.6389427200001], [26.56043625000018, 42.58471298300009], [26.51345062300004, 42.58599472100008], [26.457172394000054, 42.55958175600006], [26.397783280000112, 42.56585312000004], [26.368677139000113, 42.54106521600005], [26.385816575000035, 42.50561142000009], [26.309841157000108, 42.45383453300019], [26.24341011000007, 42.46575164900014], [26.224870681000084, 42.45159149300002]]]}}, {"type": "Feature", "properties": {"name": "BG.1_1_AC", "x": 23.7245, "y": 41.5867, "country": "BG"}, "geometry": {"type": "Polygon", "coordinates": [[[23.793354034000117, 41.838344574000075], [23.98006439300002, 41.74689483700013], [23.991666794000025, 41.724403382], [24.10755348200007, 41.65253067000015], [24.108104706000063, 41.633636474000184], [24.07977104300005, 41.610412598000096], [24.08735275300012, 41.58459854100005], [24.056051254000067, 41.51532745300011], [24.065397262000147, 41.46218109200004], [24.03089904800015, 41.449176788000045], [24.012222290000068, 41.464389801000095], [23.967494964000025, 41.43592071500018], [23.912755966000077, 41.478462220000154], [23.902008056, 41.451526641000044], [23.796377183, 41.43221664400005], [23.75793838500016, 41.39504623400012], [23.666011810000043, 41.408618928000124], [23.624055863000024, 41.37587356600005], [23.540052414000172, 41.38642883300008], [23.51911163300008, 41.40511703600009], [23.429704666000077, 41.406127931000185], [23.391275404999988, 41.40090179400005], [23.336355208999976, 41.36640930200019], [23.320726395000065, 41.39822387800018], [23.27038574300002, 41.399269104000155], [23.222742081000092, 41.37639236500013], [23.2115249630001, 41.337059022], [23.166500092000035, 41.31914901800013], [22.935628891000135, 41.33690643300008], [22.946857453000177, 41.353530884000065], [22.925024032000124, 41.408687591000046], [22.952550886999973, 41.43799972500011], [22.929817199000183, 41.483577728000114], [22.943111420000093, 41.49514770500002], [22.931606293000016, 41.52470016500007], [22.94712638800013, 41.551490785], [22.924932480000052, 41.580192565000175], [22.922676087000127, 41.62331009000019], [22.95752525299997, 41.640293121000184], [23.00573921200015, 41.71820068400018], [22.981517792000147, 41.76194381700009], [22.950231553000094, 41.755626678000056], [22.901817322000056, 41.85006332400013], [22.87526512100004, 41.86349487300009], [22.847009659000037, 41.92268753100012], [22.847225189000085, 41.98252868600008], [22.83198547300003, 41.989730836000035], [22.83745193400017, 42.00710296700004], [22.89525413500013, 42.02198028700019], [22.92471885800012, 42.096164703], [22.962003708000054, 42.06174087500017], [23.02122116000004, 42.060447692000025], [23.038816452000162, 42.04032135100016], [23.112255096000126, 42.055339813000046], [23.188827514000025, 42.10063552800017], [23.309614181000086, 42.08970260600012], [23.423641205000138, 42.05476379300018], [23.494157791000077, 42.09646988000014], [23.566900253000142, 42.0911674510001], [23.606889724000155, 42.15631103599998], [23.670043946000078, 42.16351699900014], [23.729177474000153, 42.13682556100008], [23.723119735000125, 42.168930053000054], [23.76490974400008, 42.17588424600018], [23.755716323000172, 42.150493622000056], [23.784301757000094, 42.123188019000054], [23.789987564000057, 42.0370788570001], [23.81791877800009, 42.02199936000005], [23.754100800000174, 41.95856475800008], [23.793354034000117, 41.838344574000075]]]}}, {"type": "Feature", "properties": {"name": "BG.20_1_AC", "x": 24.7995, "y": 41.7485, "country": "BG"}, "geometry": {"type": "Polygon", "coordinates": [[[25.15383339000016, 41.43368911800019], [25.18670272800017, 41.423812867000095], [25.14378356900005, 41.398071289000086], [25.158760071000017, 41.382633210000165], [25.159605026000065, 41.336528777000126], [25.135465622000083, 41.31998443700007], [25.123046875000114, 41.33983230700005], [25.074039459000062, 41.334957123000095], [25.047683716000165, 41.361377716000106], [24.932258607000165, 41.38220977800012], [24.909282685000164, 41.40345001300011], [24.87319564699999, 41.38693618900015], [24.810281754000187, 41.395610810000164], [24.79887580900015, 41.34603500500009], [24.74433136100015, 41.377872466999975], [24.72807121200009, 41.41317749100011], [24.59934616000004, 41.43193435800015], [24.594116212000188, 41.46360397400019], [24.56308555600009, 41.473762513000054], [24.555337905000044, 41.54512405400004], [24.52374649000012, 41.56663131700009], [24.48123550500003, 41.55553054900014], [24.43917846700009, 41.51917266800007], [24.39572715800017, 41.53615570100004], [24.295099258000164, 41.51122284000007], [24.293483735000166, 41.53546142600004], [24.253282546000037, 41.56853866600005], [24.200897216000158, 41.544448853000176], [24.178562164000084, 41.515918731], [24.09951591500004, 41.548694611000144], [24.070510864000084, 41.5291671760001], [24.08735275300012, 41.58459854100005], [24.07977104300005, 41.610412598000096], [24.10977935900013, 41.640682220000144], [24.086059570000145, 41.66371917700013], [24.11335182100015, 41.72357177800012], [24.20139885000009, 41.735195161000036], [24.267690659000152, 41.720024110000054], [24.335273743000187, 41.75770187300009], [24.32205581600016, 41.806537629000104], [24.40807151900009, 41.87900924700017], [24.430473329000165, 41.93324279900003], [24.462337494000053, 41.9178771980001], [24.503412247000142, 41.922325135000165], [24.558399200999986, 41.88084030100015], [24.681844711000053, 41.89708328200004], [24.788150787000063, 41.86759948800017], [24.800340653000035, 41.82676315400016], [24.762264251000147, 41.78910064700011], [24.775024414000143, 41.76967620900018], [24.79334640500008, 41.77907943700018], [24.795337676000088, 41.76029586700014], [24.818468095000128, 41.76158523500004], [24.804601670000068, 41.71277618500011], [24.848817825000026, 41.67056274500004], [24.89898300300007, 41.70987701400014], [24.903688431000035, 41.737869263000164], [24.97394561800013, 41.728916169000115], [24.994617462000065, 41.74221038900015], [24.9766464220001, 41.80181884800004], [25.028995513000098, 41.823410034000176], [25.07068252600004, 41.78667831400014], [25.114000321000105, 41.777454376000094], [25.09266662600004, 41.76673507600009], [25.089071273, 41.740844726000034], [25.130716324000048, 41.65639877300015], [25.11453056300013, 41.59585189899997], [25.016950608000116, 41.57816314700011], [25.011667251000063, 41.55750274700006], [25.038816453000038, 41.511516572], [25.06871223400009, 41.49393463100006], [25.17792510900017, 41.50141525300012], [25.190090179000094, 41.48040390100016], [25.18183708200013, 41.451824188000046], [25.15383339000016, 41.43368911800019]]]}}, {"type": "Feature", "properties": {"name": "BG.21_1_AC", "x": 23.19, "y": 42.8491, "country": "BG"}, "geometry": {"type": "Polygon", "coordinates": [[[23.639476776000095, 42.43201828100007], [23.602180481000175, 42.49092864900018], [23.610952377000103, 42.509025574000134], [23.582157135000045, 42.50838851999998], [23.546756744000106, 42.53211975200014], [23.557889938000073, 42.61800766100015], [23.51479911800004, 42.63528442299997], [23.52365493800005, 42.6651649480001], [23.622560501000123, 42.70875930900013], [23.651382446000184, 42.799873353000066], [23.64399337800006, 42.83804702700019], [23.578590393000184, 42.82924652200006], [23.509086608000075, 42.86361312800017], [23.377437592000035, 42.83260345500008], [23.34776115400001, 42.86416244600014], [23.299242020000122, 42.87868118400007], [23.219705581000028, 42.76108169600002], [23.22595787100005, 42.731960296000125], [23.038774490000037, 42.722869873000036], [23.031736375000094, 42.74210739200004], [22.997940064000034, 42.74232101400014], [22.971071243000097, 42.770675660000165], [22.9251880650001, 42.77968216], [22.900581359000057, 42.81758117800018], [22.86582756100006, 42.81908798100005], [22.850315094000052, 42.84919357400008], [22.774942397000018, 42.84590911800012], [22.76767921400011, 42.868721009000126], [22.740524292000032, 42.880935669], [22.762226104000092, 42.90932464700006], [22.754217148, 42.92521667400018], [22.767803192000088, 42.92967224100016], [22.769933700000138, 42.96162033000007], [22.82271766600013, 42.98089981100003], [22.87467193500015, 43.02458191000005], [22.893821717000094, 43.06752777100007], [22.957351685, 43.10169982900004], [22.970087051000178, 43.146415710000156], [22.959655762000125, 43.156848908000086], [22.978982926000185, 43.178604126000096], [22.961936952000087, 43.18975448600008], [23.01503753700007, 43.19857788100012], [23.137201310000023, 43.1068954480001], [23.307392120000145, 43.119709016], [23.359149933000083, 43.16263198900009], [23.49478530800019, 43.15177154600008], [23.496540070000094, 43.13086700400004], [23.467346192000036, 43.10068893400012], [23.569463730000052, 42.98491668700018], [23.65168953000017, 43.04032135100016], [23.699245454000163, 43.02000045800003], [23.79811668400015, 43.05788040100009], [23.823566437000125, 43.041114807999975], [23.895830154000123, 43.04420852800018], [23.957008362000124, 43.02738571200018], [23.978096007999966, 43.05792999300013], [24.061126709000177, 43.069259644000056], [24.090648650000105, 42.97139740100016], [24.167015076000155, 42.938617707000105], [24.140506744000106, 42.91613388100018], [24.174257278000027, 42.88956069900007], [24.165430069000024, 42.85189437899999], [24.18639183100015, 42.83446884199998], [24.177633286000116, 42.80387497100003], [24.147863388000076, 42.78245926000011], [24.28066253600008, 42.773628236000036], [24.382007598000087, 42.747055053000054], [24.35202217000017, 42.70125961300005], [24.362455368999974, 42.66241073700019], [24.49316787700019, 42.59232330300006], [24.453977585000132, 42.5499534600001], [24.421714783000027, 42.54256057800018], [24.377908706000085, 42.558887481000056], [24.33551788400007, 42.54211807300004], [24.293802262000156, 42.603580475000115], [24.22554206799998, 42.62174606400009], [24.142224882000164, 42.6046940870001], [24.128190994000192, 42.56517028800005], [24.0903588380001, 42.56833641200018], [24.046436000000142, 42.539528], [23.98054695100018, 42.571060181], [23.90531349300005, 42.55782318100012], [23.894283296000026, 42.54075241100003], [23.91662025500017, 42.4888839730001], [23.968936919000043, 42.451042175000055], [24.007286071000124, 42.44033813600004], [24.07217216400005, 42.45101165800014], [24.044197083000086, 42.385742188000165], [23.96400261000008, 42.36737060600012], [23.947692871000186, 42.333938600000124], [23.944948197000087, 42.3018951410001], [23.991928101000042, 42.290748596000014], [23.995134354000186, 42.27300644000019], [23.938722611000117, 42.24441147000016], [23.881549834000168, 42.263843536000024], [23.85277938900009, 42.22093582200006], [23.76490974400008, 42.17588424600018], [23.72529411200003, 42.171188354000094], [23.73239517200011, 42.13751602100018], [23.670043946000078, 42.16351699900014], [23.606889724000155, 42.15631103599998], [23.553165436000143, 42.087005616000056], [23.492500306000125, 42.09457016100009], [23.51220893900006, 42.12240982000003], [23.45990943900017, 42.149345398000094], [23.442968368000095, 42.190258027000084], [23.325050354000155, 42.19001007100019], [23.326770783000143, 42.21459198000008], [23.40162468, 42.270881653000174], [23.357706070000063, 42.291145325000116], [23.332366943000068, 42.34750366300011], [23.22966003500011, 42.36238479600007], [23.25036049000005, 42.384853363000104], [23.230632783000146, 42.459491731000185], [23.28205299500013, 42.51664733900009], [23.427909852000084, 42.44089508200011], [23.45081710800008, 42.45596695000012], [23.44882774400014, 42.502048493000075], [23.499521255000104, 42.50611496], [23.52608871500007, 42.46919632000015], [23.52511024400019, 42.41282272400014], [23.6350555410001, 42.41675567600009], [23.639476776000095, 42.43201828100007]]]}}, {"type": "Feature", "properties": {"name": "BG.22_1_AC", "x": 25.6508, "y": 42.437, "country": "BG"}, "geometry": {"type": "Polygon", "coordinates": [[[26.154918670000086, 42.03917694000006], [26.067892074999975, 42.01071929900013], [25.983900071000107, 42.090263367000034], [25.875923157000045, 42.111644746000024], [25.84649276700003, 42.06555938700012], [25.761850356000025, 42.049392701000045], [25.708686828000054, 42.14030075100004], [25.636114120000173, 42.11703872600009], [25.641931534000094, 42.176330567000036], [25.62758636500007, 42.1940002450001], [25.564245224000047, 42.155239106000124], [25.58354377800009, 42.150466920000156], [25.57566070600012, 42.14037323000008], [25.52619934100011, 42.15382003700006], [25.49498367300015, 42.14178848300003], [25.464504243000135, 42.077545166000164], [25.376274109000065, 42.09362792900009], [25.30480384900011, 42.16366958600008], [25.178720473999988, 42.14251327500011], [25.11226463200012, 42.150436401000036], [25.097328187000187, 42.18624877900004], [25.109916687000123, 42.23482131999998], [25.216262818000132, 42.25391388000003], [25.15048790100019, 42.282768250000174], [25.143953324000165, 42.38812255900007], [25.22591018700018, 42.37645721500013], [25.243307113000185, 42.39213943500005], [25.18866539000004, 42.42851257400014], [25.221319200000153, 42.45229339600013], [25.214471817000174, 42.485183716999984], [25.127460479000035, 42.478858948000095], [25.056726455000046, 42.51419067400013], [25.024738311000135, 42.59063720600005], [25.04961776700003, 42.625820160000046], [25.036470413000075, 42.73534774700005], [25.110128402000157, 42.728939057], [25.226276397000106, 42.772502899000074], [25.291299819000074, 42.741653443000075], [25.45551681400019, 42.72237777700019], [25.46243667600004, 42.762977600000056], [25.548210145000155, 42.73682022100019], [25.617853164000053, 42.753555298000094], [25.655059815000186, 42.731239319999986], [25.747734070000035, 42.78152084300018], [25.845148087000155, 42.78354644799998], [25.83956146300011, 42.75874710100004], [25.881843567000033, 42.62413024800003], [25.92041206400006, 42.5791893], [25.86649322500017, 42.544834137000066], [25.915094375000137, 42.469085693000125], [25.890481949000105, 42.42509078900008], [25.920951844000115, 42.40507888800016], [25.95938491800007, 42.3188972480001], [25.995782853000094, 42.30491256700003], [26.019515990000116, 42.27522659400006], [26.05549621600011, 42.2705802910001], [26.05754089400017, 42.24901962300015], [26.09345436000018, 42.261974335], [26.19859313900014, 42.22786331200018], [26.145254135000016, 42.14845657400008], [26.162654877000023, 42.07912063700002], [26.154918670000086, 42.03917694000006]]]}}, {"type": "Feature", "properties": {"name": "BG.23_1_AC", "x": 26.4051, "y": 43.1151, "country": "BG"}, "geometry": {"type": "Polygon", "coordinates": [[[26.653572082000096, 43.094528198000035], [26.651027680000084, 43.066120147000106], [26.61389351000014, 43.054328919000056], [26.62360382000014, 43.024959563000095], [26.57040786700003, 42.99767685], [26.517776489000028, 43.02086639400011], [26.42527198900018, 43.012470246000134], [26.395046235, 43.03374862700008], [26.3594760900001, 43.01279449600014], [26.35761642400007, 43.052143097000055], [26.29597282499998, 43.046203614000035], [26.275444030000074, 42.99673080499997], [26.197254181, 42.95289611900006], [26.114711761000024, 42.99090576200007], [26.150989533000143, 43.032508850000056], [26.102670669000076, 43.06043243500005], [26.07531356800007, 43.09953689500014], [26.091672897000137, 43.17748642000004], [26.128562928, 43.20669555700016], [26.12291717500017, 43.22780227600009], [26.06978607100001, 43.26621627800006], [26.101003646000095, 43.29695129400005], [26.026851654000097, 43.328037263000056], [26.027166366000188, 43.37178039500003], [25.955251694000026, 43.413215637], [26.001361847, 43.43416976900005], [26.038108826000155, 43.482925416000114], [26.04697227400004, 43.52481079100011], [26.197370529000068, 43.54103469900008], [26.23410224800017, 43.574455262000185], [26.35515213000008, 43.50859451300005], [26.372255325000083, 43.46010971100014], [26.468864441000107, 43.459930421000024], [26.46794128300013, 43.42832946699997], [26.438924789000055, 43.40298462000004], [26.333578110000076, 43.36000061100003], [26.346483231000036, 43.33156967100007], [26.397542954000073, 43.31885910000011], [26.369829178000145, 43.297660827000016], [26.3884143840001, 43.276649475000056], [26.44606208800019, 43.28746032700019], [26.44539070100018, 43.332809449000194], [26.477428435000093, 43.35185623100011], [26.467992783000113, 43.367824555000084], [26.553882598000087, 43.37625122200018], [26.656215668000186, 43.347141266], [26.679307938000193, 43.38283538800016], [26.734802246000072, 43.37122726400003], [26.77408409100019, 43.38145828299997], [26.735879898000064, 43.30735397400014], [26.77232170100018, 43.28107070900012], [26.77550697300012, 43.25718689000007], [26.724090576000037, 43.221229553000114], [26.71277236800006, 43.17400360200014], [26.67039871300011, 43.17636108500005], [26.665277480000157, 43.13909912200012], [26.6877670290001, 43.10253143300008], [26.653572082000096, 43.094528198000035]]]}}, {"type": "Feature", "properties": {"name": "BG.24_1_AC", "x": 27.5643, "y": 43.3527, "country": "BG"}, "geometry": {"type": "Polygon", "coordinates": [[[27.87022399800003, 42.83465576100008], [27.777612686000168, 42.82112503100018], [27.727373124000167, 42.84605026200006], [27.69518661600017, 42.89031982400013], [27.60565567000009, 42.90110397400014], [27.528175355000144, 42.8835411070001], [27.45791816800005, 42.89167404200009], [27.34582328800019, 42.966335296000125], [27.29999923800017, 42.97544860800008], [27.219999314000177, 42.9797058100001], [27.128000260000192, 42.94723129300013], [27.13772964400016, 42.97849273600008], [27.09690856900005, 42.98798751800018], [27.10441017200003, 43.010791779000044], [27.089952470000128, 43.0255813600001], [27.258464814000092, 43.04872131399998], [27.240722655000184, 43.09583282400018], [27.198854446000155, 43.10633850100015], [27.18733787600013, 43.12523269700006], [27.22193908700018, 43.16526794500004], [27.319067001000178, 43.211383819000105], [27.26858902100014, 43.306316375000165], [27.31859779400014, 43.328853608000145], [27.3386192320001, 43.35770797800018], [27.302415848000066, 43.398689271000194], [27.361024857000075, 43.46572113000019], [27.332534790000068, 43.48157119700005], [27.360059737000142, 43.509166718000074], [27.330284119000112, 43.5209579480001], [27.336063385000102, 43.55045318700013], [27.440042495000114, 43.598606109000116], [27.472902297000076, 43.596702575000165], [27.503194809000036, 43.56158447400014], [27.504066468000133, 43.514713288000166], [27.548345565000147, 43.51319122399997], [27.589889527000082, 43.54301834199998], [27.611082077000106, 43.52371597200005], [27.61278152500006, 43.49282837000004], [27.707412719000047, 43.47653961200018], [27.72705078100006, 43.43722152700013], [27.788599013000123, 43.414638519000164], [27.846967698000128, 43.35742950500014], [27.913688660000048, 43.39403534000013], [27.973876953000115, 43.39501190100003], [28.013881682000147, 43.35123062200017], [28.032617570000127, 43.30069732700008], [28.042238236000173, 43.30225753700006], [28.051578498000083, 43.30152899899997], [28.0156940010001, 43.225971], [27.90165899900012, 43.185695999000075], [27.947083001000067, 43.16569500000014], [27.913749695000035, 43.06263732900004], [27.88791656500007, 43.0356941230001], [27.903194428000063, 42.853748323000104], [27.87022399800003, 42.83465576100008]]]}}, {"type": "Feature", "properties": {"name": "BG.25_1_AC", "x": 25.5677, "y": 43.0769, "country": "BG"}, "geometry": {"type": "Polygon", "coordinates": [[[26.197254181, 42.95289611900006], [26.15966415500003, 42.91460037200005], [26.07897376900013, 42.88254547200006], [26.08327865600006, 42.84643936300006], [25.995983125000123, 42.79042053300009], [25.901805877000015, 42.76934814500004], [25.77806663600012, 42.78758239700005], [25.67814254800004, 42.74988937400019], [25.64307212799997, 42.7685127260001], [25.622608184, 42.815353394000056], [25.66830825800008, 42.86013794000007], [25.645988464000084, 42.8676872260001], [25.644981385000108, 42.899204255000086], [25.60861778300017, 42.901405334], [25.575080872000115, 42.92910385200014], [25.577804565000122, 42.96132659900019], [25.616502763000142, 42.98229980400015], [25.61388015700004, 43.013275146000126], [25.497505189000037, 43.04615783700007], [25.343742371000076, 43.05284118700007], [25.33256912300004, 43.06724548400007], [25.341621399000132, 43.11350631700009], [25.248254777000113, 43.09211731000005], [25.16371727000012, 43.1137428290001], [25.10709571800004, 43.17956161500001], [25.14061164800006, 43.18860244900003], [25.138677597000026, 43.21763229400011], [25.17307281400008, 43.26268386800018], [25.163953782000135, 43.28667831500013], [25.25448989900019, 43.32403946000011], [25.274776460000112, 43.3573799130001], [25.268747330000053, 43.37384796200013], [25.205886842000155, 43.378307343000074], [25.23846054100011, 43.41358947700007], [25.233249664000027, 43.43181991600005], [25.149499894000087, 43.42584228599998], [25.13011932400002, 43.44053268400012], [25.213693620000186, 43.476261139000144], [25.213985444000173, 43.51691436800019], [25.23369026200004, 43.54232788200005], [25.208778382000105, 43.569435120000094], [25.223821640000097, 43.62202835100004], [25.197088242000063, 43.64881134100011], [25.213109970000062, 43.690525056000126], [25.36832618600016, 43.62220382700019], [25.503854752000052, 43.64589691200007], [25.521877289000088, 43.633689880000134], [25.53199195800005, 43.61249160700004], [25.494533540000134, 43.57998657200005], [25.543773652000027, 43.51031875700011], [25.58855819600018, 43.50398254500004], [25.590694428000177, 43.453907013000105], [25.573083878000034, 43.437618255000075], [25.59740829500015, 43.42349243100017], [25.67924118000019, 43.39624023400012], [25.717891694000173, 43.41273879900018], [25.785909653000033, 43.369396211000094], [25.942562104000103, 43.38174438500005], [25.97186279200008, 43.33263015799997], [26.04967117300015, 43.32592010600007], [26.093755722000083, 43.30542373600008], [26.100423814000067, 43.28895950400016], [26.06978607100001, 43.26621627800006], [26.12291717500017, 43.22780227600009], [26.128562928, 43.20669555700016], [26.091672897000137, 43.17748642000004], [26.07531356800007, 43.09953689500014], [26.102670669000076, 43.06043243500005], [26.150989533000143, 43.032508850000056], [26.114711761000024, 42.99090576200007], [26.18557929900004, 42.967052460000104], [26.197254181, 42.95289611900006]]]}}, {"type": "Feature", "properties": {"name": "BG.26_1_AC", "x": 22.8474, "y": 43.9639, "country": "BG"}, "geometry": {"type": "Polygon", "coordinates": [[[22.793113708000135, 43.490901947000054], [22.78929901200013, 43.437320709000176], [22.71380806000019, 43.38012695400005], [22.646493913000086, 43.38848877000004], [22.630071641000086, 43.42007064800009], [22.572183608000046, 43.427318573000036], [22.552095412000085, 43.45513916100009], [22.512624740000092, 43.461688996000134], [22.46997070400016, 43.54780578599997], [22.463367462000065, 43.61742782599998], [22.474264145000063, 43.632198333000076], [22.390695572000084, 43.68674468900008], [22.38719558700018, 43.74651336700015], [22.343828200000075, 43.79296112100013], [22.36670112700017, 43.83030319300019], [22.378284455000028, 43.91196823100012], [22.398820877000162, 43.92576599200015], [22.404434205000086, 43.994274140000186], [22.516241, 44.009460000000104], [22.53269933700011, 44.02393201900014], [22.522769928, 44.041530609000176], [22.61770901400007, 44.05720058900016], [22.612167359000125, 44.10467910800003], [22.6366900000001, 44.154461], [22.621501943000112, 44.162250534000066], [22.68092189100014, 44.21267685700013], [22.75095176800005, 44.198192597], [22.92700576800013, 44.102478027000075], [23.025876998000115, 44.089698791000046], [23.047428131000117, 44.06408691399997], [23.01157760600006, 44.01376724300002], [22.880252839000093, 43.98190689000012], [22.83980560400005, 43.88703537000009], [22.875003816000174, 43.83538436900017], [23.035985947000142, 43.80311203000002], [23.009185791000107, 43.787380219], [22.96129798900006, 43.78815078800011], [22.948158264000085, 43.77263259900013], [22.953086852000183, 43.75844573900014], [23.02166557300012, 43.744136811000146], [23.044488908000176, 43.71298599300002], [22.924043656000038, 43.670528412000124], [22.907421112000122, 43.575881959000185], [22.853317260000154, 43.5126152040001], [22.793113708000135, 43.490901947000054]]]}}, {"type": "Feature", "properties": {"name": "BG.27_1_AC", "x": 23.776, "y": 43.7391, "country": "BG"}, "geometry": {"type": "Polygon", "coordinates": [[[23.780338287000063, 43.05683135900017], [23.699245454000163, 43.02000045800003], [23.65168953000017, 43.04032135100016], [23.590091704000088, 42.98976516700009], [23.563419341999975, 42.986263275000056], [23.467346192000036, 43.10068893400012], [23.497312546000046, 43.150028229000156], [23.420587539000053, 43.15856933600014], [23.404783248000058, 43.1805610670001], [23.410812378000116, 43.21070098900009], [23.457855225000174, 43.21864318900015], [23.452754974000186, 43.24681854200003], [23.32120323200013, 43.290752411000085], [23.407981873000153, 43.39268493700001], [23.40190887400007, 43.4483528130001], [23.435199738000165, 43.51043319700017], [23.542112351000185, 43.50184249900008], [23.575986863000026, 43.52796554600013], [23.62725067100007, 43.531234742000095], [23.548549652000133, 43.59832763600008], [23.586353302000077, 43.64249038800017], [23.593366623000065, 43.68304061800012], [23.633750915000178, 43.74383544900007], [23.622781754000016, 43.79138565000005], [23.75135993900011, 43.80155181900017], [23.86490249700006, 43.75537490800019], [23.990152358000103, 43.73992157100008], [24.17486000100007, 43.68294143600008], [24.321138383000175, 43.700271608000094], [24.297218322000163, 43.651573181000174], [24.27174186600007, 43.6623764040001], [24.260553359000085, 43.64498520000018], [24.22173309300007, 43.66352081300016], [24.17512702900018, 43.611404419000166], [24.114353181000013, 43.62557602000004], [24.04683685200007, 43.606975556000066], [24.023180008000054, 43.53649139300006], [24.04146385300004, 43.48469543400017], [24.080530166000074, 43.445220947000166], [23.97715950000014, 43.354324342000155], [23.986904144000107, 43.31574630700004], [23.968751908000115, 43.24919128500011], [23.984720231000153, 43.22759628400013], [24.021093368000095, 43.23400497400013], [24.050527572000078, 43.214191438000114], [24.056560517000037, 43.12048721400009], [23.97371673600003, 43.1118278510001], [23.983230591000165, 43.074394227000084], [23.966173172000083, 43.02843856900017], [23.780338287000063, 43.05683135900017]]]}}, {"type": "Feature", "properties": {"name": "BG.28_1_AC", "x": 26.5812, "y": 42.1904, "country": "BG"}, "geometry": {"type": "Polygon", "coordinates": [[[26.56463623100018, 41.94017410300012], [26.490608215000123, 42.01982498100017], [26.51887130700004, 42.03689575300007], [26.506425857000067, 42.09015655600018], [26.531959533000077, 42.142742158000146], [26.507854461000136, 42.14272308500006], [26.490959167000028, 42.16399764900012], [26.387664794000102, 42.16214370700004], [26.178983688000073, 42.2395629880001], [26.251276016000077, 42.377658844000166], [26.243453979000094, 42.39233398400006], [26.208408356, 42.376129150000054], [26.183555602000183, 42.41750717100001], [26.228118897000115, 42.42008209200003], [26.224546433000114, 42.45445633000003], [26.23794937100007, 42.46553039600008], [26.30508613700016, 42.45210647700003], [26.341049194999982, 42.47438430900013], [26.385816575000035, 42.50561142000009], [26.368677139000113, 42.54106521600005], [26.397783280000112, 42.56585312000004], [26.457172394000054, 42.55958175600006], [26.51345062300004, 42.58599472100008], [26.56043625000018, 42.58471298300009], [26.630594253000027, 42.6389427200001], [26.655580521000104, 42.63306045600012], [26.673978805000047, 42.6595382700001], [26.663635253000052, 42.70918273900014], [26.674303055000053, 42.72019195500013], [26.71657371600014, 42.7031364450001], [26.789884567000115, 42.623725892000095], [26.806875228000024, 42.56878280700005], [26.872581482000044, 42.49554443300019], [26.879606246000037, 42.45464324900013], [26.939830780000023, 42.45134353700013], [26.963872910000134, 42.42207718000009], [26.862171174000025, 42.396583558000145], [26.86256027200011, 42.361663819], [26.90448570200016, 42.336383820000094], [26.92664909300015, 42.29504013000019], [26.96286773700018, 42.284282685000164], [26.93577385000009, 42.24234390300006], [26.969673156000056, 42.20688629100016], [26.94280243000003, 42.18123626700003], [26.955509185000096, 42.13299942100002], [27.046188354000037, 42.0975646980001], [26.96805954100006, 42.00214386000016], [26.865001679000045, 41.98744964600007], [26.8385181430001, 41.96940231300016], [26.781169891000104, 41.977985383000146], [26.751115800000036, 41.95451355000006], [26.623439789000145, 41.976928711000085], [26.56463623100018, 41.94017410300012]]]}}, {"type": "Feature", "properties": {"name": "BG.2_1_AC", "x": 27.4339, "y": 42.1882, "country": "BG"}, "geometry": {"type": "Polygon", "coordinates": [[[27.743473053000116, 42.328750609999986], [27.784860611000056, 42.33625030600007], [27.77263832000017, 42.320137023000086], [27.795139312000117, 42.307083129000034], [27.75236129800004, 42.28597259500003], [27.765972138000166, 42.26514053400007], [27.75041580200019, 42.25069427400007], [27.841806411000164, 42.19486236600011], [27.853195190000065, 42.165416718000074], [27.913194657000133, 42.12708282500006], [27.91347313000017, 42.11041641300005], [27.94708252000015, 42.10430526700014], [27.97041702300004, 42.06569290300013], [27.991806030000077, 42.06375122200012], [27.98541641300011, 42.05347061200007], [28.035972595000032, 41.982917786000144], [27.896690368000122, 41.96889495900007], [27.851890564000087, 41.996574402000135], [27.813037872999985, 41.97978210500008], [27.827438355000083, 41.945426942000154], [27.80249786400003, 41.93573379500009], [27.729068756000117, 41.97274398700006], [27.69262123100009, 41.97296524000018], [27.66846656900009, 41.952606201000094], [27.568567275000134, 41.93664169300007], [27.557416915000033, 41.91358566300005], [27.567394257000103, 41.90628051800019], [27.55143928500013, 41.89959716700008], [27.509033203000115, 41.95071411200013], [27.415891648000184, 41.990142822000166], [27.37157821700015, 42.05439376800007], [27.275703429000146, 42.10506820800015], [27.229766846000075, 42.10108566400015], [27.208007812000062, 42.083984375000114], [27.209518433000085, 42.06493759200009], [27.07774353000019, 42.09426879900019], [27.038507462000098, 42.0838165290001], [27.037040711000145, 42.10713958700018], [26.955509185000096, 42.13299942100002], [26.94280243000003, 42.18123626700003], [26.969673156000056, 42.20688629100016], [26.93577385000009, 42.24234390300006], [26.96286773700018, 42.284282685000164], [26.92664909300015, 42.29504013000019], [26.90448570200016, 42.336383820000094], [26.86256027200011, 42.361663819], [26.862171174000025, 42.396583558000145], [26.963872910000134, 42.42207718000009], [26.939830780000023, 42.45134353700013], [26.879606246000037, 42.45464324900013], [26.872581482000044, 42.49554443300019], [26.806875228000024, 42.56878280700005], [26.789884567000115, 42.623725892000095], [26.69883918800008, 42.71298599200014], [26.70688057000018, 42.73971557700014], [26.64029693700013, 42.7937240600001], [26.59140777600004, 42.800605775000065], [26.581876755000053, 42.82751464900008], [26.59885025000017, 42.85466384800009], [26.576055527000165, 42.89477539000018], [26.58034896800001, 42.93614959700017], [26.643026352000106, 42.93958664000007], [26.64918136600005, 42.90681839000007], [26.728023528, 42.9100875850001], [26.80035209700003, 42.947048187000064], [26.924253463000184, 42.93627166700014], [26.98894309999997, 42.94657898000008], [27.022262573000035, 42.91579437300015], [27.214294434000124, 42.978603363000104], [27.29999923800017, 42.97544860800008], [27.34582328800019, 42.966335296000125], [27.45791816800005, 42.89167404200009], [27.528175355000144, 42.8835411070001], [27.60565567000009, 42.90110397400014], [27.69518661600017, 42.89031982400013], [27.727373124000167, 42.84605026200006], [27.777612686000168, 42.82112503100018], [27.882638932000134, 42.83368682800011], [27.90097236600002, 42.77208328300003], [27.888471603000028, 42.75263977000003], [27.90013885500008, 42.70013809200009], [27.72652816699997, 42.70819473200004], [27.71180534400014, 42.67097091800014], [27.740972518999968, 42.658748628000126], [27.637362000000167, 42.62986000000018], [27.63236, 42.584862], [27.650972, 42.554585000000145], [27.523195267, 42.558193206000055], [27.48624992300006, 42.52152633800006], [27.48374939000007, 42.48208236700009], [27.446527481000032, 42.47652816900006], [27.451805114000024, 42.45319366500007], [27.46736145000017, 42.445972442000084], [27.47958374000018, 42.462081910000165], [27.51069450300008, 42.42847061200007], [27.53930473400004, 42.45735931400003], [27.571251, 42.444584000000134], [27.58541700000012, 42.46347], [27.606806, 42.445137], [27.628195, 42.45958300000018], [27.651806000000136, 42.450974], [27.656250000000114, 42.430695], [27.643749000000184, 42.424583], [27.659306, 42.410973], [27.698750000000132, 42.427082], [27.705139, 42.40902700000015], [27.72958400000016, 42.410137000000134], [27.705973, 42.39458500000018], [27.724028000000146, 42.37902800000012], [27.708195, 42.366249], [27.743473053000116, 42.328750609999986]]]}}, {"type": "Feature", "properties": {"name": "BG.3_1_AC", "x": 28.4439, "y": 43.4826, "country": "BG"}, "geometry": {"type": "Polygon", "coordinates": [[[28.35652732800014, 43.41319274799997], [28.152082443000097, 43.40458297700019], [28.09319496100011, 43.37680435300007], [28.051805, 43.30152899899997], [28.032617570000127, 43.30069732700008], [28.013881682000147, 43.35123062200017], [27.96768760700013, 43.39695739700005], [27.913688660000048, 43.39403534000013], [27.843347549000157, 43.358356476000154], [27.788599013000123, 43.414638519000164], [27.72705078100006, 43.43722152700013], [27.707412719000047, 43.47653961200018], [27.61278152500006, 43.49282837000004], [27.611082077000106, 43.52371597200005], [27.589889527000082, 43.54301834199998], [27.55387878400012, 43.51522064200003], [27.50919532800009, 43.51332473800005], [27.49905777000015, 43.57136535700005], [27.472902297000076, 43.596702575000165], [27.440042495000114, 43.598606109000116], [27.40930938700012, 43.63030242900004], [27.32126426700006, 43.61522674500003], [27.296686172000136, 43.65607452400019], [27.23551559400005, 43.67455673300009], [27.254600525000058, 43.68761444199998], [27.21830368000019, 43.71937561100009], [27.220300675000146, 43.74549865700004], [27.26970672599998, 43.76808166500018], [27.315946580000173, 43.81348419300019], [27.369281769000054, 43.82215881399998], [27.424100876000125, 43.86692047200006], [27.450382232000038, 43.86947250400004], [27.48466873100017, 43.84580230700004], [27.519918443000165, 43.91251754800015], [27.5578975680001, 43.899505616], [27.593584060000126, 43.910049438000044], [27.58492660400003, 43.93265533500005], [27.625215530000048, 43.97912216200007], [27.68381309500012, 43.98548126300017], [27.73932838400009, 43.95379638800017], [27.84495544400005, 43.966663361000144], [27.918294906000142, 44.00849533100012], [27.945737839000174, 43.98506546100003], [27.99568367000012, 43.843154908000145], [28.22699546900003, 43.770206452000025], [28.437076568000123, 43.735939027000086], [28.579860686000075, 43.740417481000065], [28.56319427500017, 43.69041824400017], [28.579305648000172, 43.63763809300019], [28.568195341999967, 43.601528168000186], [28.609027863000108, 43.53930664], [28.544860841000116, 43.43486023100019], [28.498193742000183, 43.410972596000136], [28.46624946500009, 43.359584809000125], [28.45291710000015, 43.37958145100015], [28.35652732800014, 43.41319274799997]]]}}, {"type": "Feature", "properties": {"name": "BG.4_1_AC", "x": 25.318, "y": 42.8676, "country": "BG"}, "geometry": {"type": "Polygon", "coordinates": [[[25.575080872000115, 42.92910385200014], [25.644981385000108, 42.899204255000086], [25.645988464000084, 42.8676872260001], [25.669038772000135, 42.8584060660001], [25.622608184, 42.815353394000056], [25.64307212799997, 42.7685127260001], [25.677396774000158, 42.75017166200007], [25.66549491900014, 42.73426437400019], [25.616006852000055, 42.75383377100013], [25.548210145000155, 42.73682022100019], [25.46243667600004, 42.762977600000056], [25.45551681400019, 42.72237777700019], [25.291299819000074, 42.741653443000075], [25.226276397000106, 42.772502899000074], [25.088542938000103, 42.72911453300014], [25.036470413000075, 42.73534774700005], [25.036420823000014, 42.772212981999985], [25.004556655000044, 42.814971924000076], [24.950067519000186, 42.87046813900008], [24.892852783000023, 42.89637374800009], [24.87506866500007, 42.99205017100013], [24.893251419000137, 43.0369415290001], [24.951093675000152, 43.04104614199997], [24.931850433000136, 43.13035202000009], [24.972820283000146, 43.149597169], [24.96183204600004, 43.21807861300016], [24.981157303000032, 43.224826814000096], [25.10709571800004, 43.17956161500001], [25.118270874000075, 43.15156936600005], [25.183395384999983, 43.104217530000085], [25.26138877800014, 43.09257507400008], [25.341621399000132, 43.11350631700009], [25.33256912300004, 43.06724548400007], [25.343742371000076, 43.05284118700007], [25.497505189000037, 43.04615783700007], [25.610431671000185, 43.01527786200006], [25.616502763000142, 42.98229980400015], [25.576732636000145, 42.95840835700017], [25.575080872000115, 42.92910385200014]]]}}, {"type": "Feature", "properties": {"name": "BG.5_1_AC", "x": 23.6208, "y": 42.7184, "country": "BG"}, "geometry": {"type": "Polygon", "coordinates": [[[23.038774490000037, 42.722869873000036], [23.22595787100005, 42.731960296000125], [23.219705581000028, 42.76108169600002], [23.299242020000122, 42.87868118400007], [23.34776115400001, 42.86416244600014], [23.377437592000035, 42.83260345500008], [23.509086608000075, 42.86361312800017], [23.578590393000184, 42.82924652200006], [23.638107299000183, 42.841209413], [23.651382446000184, 42.799873353000066], [23.622560501000123, 42.70875930900013], [23.52365493800005, 42.6651649480001], [23.51479911800004, 42.63528442299997], [23.557889938000073, 42.61800766100015], [23.546756744000106, 42.53211975200014], [23.582157135000045, 42.50838851999998], [23.610952377000103, 42.509025574000134], [23.602180481000175, 42.49092864900018], [23.642215729000156, 42.42256546000016], [23.52511024400019, 42.41282272400014], [23.52608871500007, 42.46919632000015], [23.494289398000035, 42.50768280100016], [23.44882774400014, 42.502048493000075], [23.44792366000013, 42.45010376100004], [23.41355896000016, 42.44411850000017], [23.28205299500013, 42.51664733900009], [23.27501869300005, 42.537544251000156], [23.24480438200004, 42.541938782000045], [23.217943191000018, 42.57411575400016], [23.16214942900001, 42.57863616900016], [23.1823463450001, 42.5948371880001], [23.173328400000116, 42.64403533900003], [23.119844436000108, 42.660305023000035], [23.099754333000078, 42.69166565], [23.038774490000037, 42.722869873000036]]]}}, {"type": "Feature", "properties": {"name": "BG.6_1_AC", "x": 25.571, "y": 41.9428, "country": "BG"}, "geometry": {"type": "Polygon", "coordinates": [[[26.093860626000037, 41.63420867899998], [26.135957719000032, 41.628753663000055], [26.150863648000097, 41.602840424000135], [26.145000458000084, 41.55201721200012], [26.174045564000096, 41.55218505800019], [26.18380928100015, 41.51696396000011], [26.15286254900019, 41.47267532400008], [26.19223213099997, 41.43944168200011], [26.15074157700002, 41.4198799130001], [26.146278380000126, 41.386638642000094], [26.117387771000097, 41.348747254000045], [26.030233383, 41.34714508000019], [25.938255310000045, 41.31452560400004], [25.923030854, 41.365760804], [25.866401673000098, 41.39022827100001], [25.851228714000115, 41.419357301], [25.878665925000178, 41.47675323500005], [25.7939300540001, 41.499744415000066], [25.800418854000156, 41.567127228000174], [25.85603332500017, 41.600673675000166], [25.83973121600019, 41.64101410000006], [25.785020829000075, 41.648811340000066], [25.71442985400006, 41.60697937000009], [25.635065078000082, 41.61162567100001], [25.624725341000158, 41.63144683900009], [25.65612220700018, 41.67064285300012], [25.63581657300017, 41.721942902000194], [25.58767891000008, 41.75150299000012], [25.53719329900008, 41.74138259800014], [25.426748276000183, 41.78214263800004], [25.390123367000058, 41.83528900100009], [25.319478989000174, 41.790252686000144], [25.28031730700019, 41.814216614000145], [25.271949768000184, 41.88396072400013], [25.34525680500019, 41.94603729300013], [25.33261108500011, 42.02285766600005], [25.37703132600012, 42.0945053100001], [25.46891021700003, 42.078189851000104], [25.49498367300015, 42.14178848300003], [25.52619934100011, 42.15382003700006], [25.57566070600012, 42.14037323000008], [25.58354377800009, 42.150466920000156], [25.564245224000047, 42.155239106000124], [25.62169456400011, 42.19359970099998], [25.641616822000174, 42.17874908500016], [25.636114120000173, 42.11703872600009], [25.708686828000054, 42.14030075100004], [25.74571609500009, 42.09508132999997], [25.75927162300013, 42.05032348700013], [25.84649276700003, 42.06555938700012], [25.86915016200004, 42.11069488600009], [25.92169952400019, 42.10871124300019], [25.986513139000124, 42.088871002000076], [26.072011948000068, 42.01008987500012], [26.163812637000092, 42.04177856500013], [26.145254135000016, 42.14845657400008], [26.19859313900014, 42.22786331200018], [26.387664794000102, 42.16214370700004], [26.490959167000028, 42.16399764900012], [26.507854461000136, 42.14272308500006], [26.53342819200003, 42.141559600000164], [26.506425857000067, 42.09015655600018], [26.51887130700004, 42.03689575300007], [26.490608215000123, 42.01982498100017], [26.553363801000046, 41.94198989900008], [26.57893943700003, 41.941505433000145], [26.569192885000064, 41.92753219600013], [26.585836410000013, 41.905204773000094], [26.58152771100015, 41.87805175800008], [26.53804588300011, 41.83726882900015], [26.377365112000177, 41.832740784], [26.339628220000122, 41.75893020600006], [26.37015342800015, 41.71202469000002], [26.286045075000118, 41.711891174000186], [26.250574112000095, 41.722366332000036], [26.23063468800018, 41.74789810100003], [26.217201233000026, 41.731239318], [26.17429542600013, 41.748008729000105], [26.113716125000053, 41.71211624200015], [26.08316612300007, 41.71461868400007], [26.059082032000163, 41.69606399500009], [26.061830521000104, 41.6600265510001], [26.093860626000037, 41.63420867899998]]]}}, {"type": "Feature", "properties": {"name": "BG.7_1_AC", "x": 25.3812, "y": 41.6342, "country": "BG"}, "geometry": {"type": "Polygon", "coordinates": [[[25.437007904000154, 41.781242371000076], [25.53719329900008, 41.74138259800014], [25.58767891000008, 41.75150299000012], [25.63836479200006, 41.71987533599997], [25.65612220700018, 41.67064285300012], [25.624725341000158, 41.63144683900009], [25.635065078000082, 41.61162567100001], [25.71442985400006, 41.60697937000009], [25.785020829000075, 41.648811340000066], [25.83973121600019, 41.64101410000006], [25.85603332500017, 41.600673675000166], [25.800418854000156, 41.567127228000174], [25.7939300540001, 41.499744415000066], [25.878665925000178, 41.47675323500005], [25.851228714000115, 41.419357301], [25.866401673000098, 41.39022827100001], [25.923030854, 41.365760804], [25.938255310000045, 41.31452560400004], [25.870006562000185, 41.29916763400013], [25.854804992000084, 41.30544662500017], [25.859924317000036, 41.32013702400019], [25.811744688999966, 41.336776734000125], [25.77104187000009, 41.31457901100015], [25.719182969000144, 41.316047670000046], [25.70152091900019, 41.291191100000106], [25.65001487800015, 41.31043624900019], [25.615966798000102, 41.301219940000124], [25.55281639100008, 41.31588363700007], [25.52461624200015, 41.27816009500003], [25.466859818000103, 41.2874031070001], [25.27950859100008, 41.234809876000156], [25.22325325000014, 41.245647431000066], [25.20013427700013, 41.28934478800011], [25.135465622000083, 41.31998443700007], [25.159605026000065, 41.336528777000126], [25.158760071000017, 41.382633210000165], [25.14378356900005, 41.398071289000086], [25.18601226800007, 41.42229080300007], [25.15383339000016, 41.43368911800019], [25.18183708200013, 41.451824188000046], [25.189205170000093, 41.49132919300013], [25.162582397000108, 41.505580901000144], [25.06375503600009, 41.49581909100016], [25.01070404100011, 41.56122970600018], [25.016950608000116, 41.57816314700011], [25.091480256000125, 41.58354187000009], [25.126775742000177, 41.61075210700005], [25.1300601960001, 41.65966033900003], [25.089071273, 41.740844726000034], [25.09266662600004, 41.76673507600009], [25.136476517000176, 41.785682679000104], [25.151159287000155, 41.8190231320001], [25.218780518000074, 41.872200013000054], [25.277025223000123, 41.892101288000106], [25.281658172, 41.81238937300003], [25.32771492000012, 41.789043427000195], [25.390123367000058, 41.83528900100009], [25.437007904000154, 41.781242371000076]]]}}, {"type": "Feature", "properties": {"name": "BG.8_1_AC", "x": 23.0365, "y": 42.3146, "country": "BG"}, "geometry": {"type": "Polygon", "coordinates": [[[23.51220893900006, 42.12240982000003], [23.44852638300017, 42.06119537400008], [23.402425765000146, 42.05392456100003], [23.309614181000086, 42.08970260600012], [23.188827514000025, 42.10063552800017], [23.112255096000126, 42.055339813000046], [23.038816452000162, 42.04032135100016], [23.02122116000004, 42.060447692000025], [22.95843887300009, 42.063571931000126], [22.928688049000186, 42.0974998480001], [22.900808334999965, 42.06246185400005], [22.890508652000165, 42.017341614000145], [22.811922073000176, 42.00483322100018], [22.77564048700009, 42.03148651200007], [22.72075653000013, 42.030231476000154], [22.700590133000162, 42.054859162000184], [22.65735435400012, 42.050682069000175], [22.58062362600009, 42.08609771700003], [22.493833542000175, 42.143146515000126], [22.4817276, 42.18439865000016], [22.45120429900004, 42.19157028100011], [22.41756439300002, 42.24848175100004], [22.34573745700004, 42.304096222000055], [22.388593673000173, 42.325267791000044], [22.436510086000055, 42.32495880200014], [22.460065842000063, 42.388607024000066], [22.502971650000063, 42.39034652800012], [22.538339615000154, 42.466278076000094], [22.52610969500006, 42.49299621600011], [22.416500091000103, 42.56063079800015], [22.436828613000046, 42.61935424899997], [22.59764862100019, 42.62065124500003], [22.607936859000063, 42.568058013000154], [22.701116562000095, 42.50832748400012], [22.704650878000166, 42.470733643000074], [22.73883247500015, 42.425098419], [22.79315185500019, 42.40418243400006], [22.80274391200004, 42.38374328599997], [22.831069947000117, 42.38182449400006], [22.844484328000078, 42.355987548000144], [22.915964127000052, 42.357536316], [22.922863006000057, 42.38146209700017], [23.00032424800014, 42.40171051100003], [23.04661178500004, 42.37340927200006], [23.08107376200013, 42.36993789700017], [23.111089706000143, 42.398704530000145], [23.13611793600012, 42.36687469600014], [23.185449600000084, 42.35271835300006], [23.22966003500011, 42.36238479600007], [23.332366943000068, 42.34750366300011], [23.357706070000063, 42.291145325000116], [23.40327835000005, 42.26751327500017], [23.34592437800012, 42.23328399600018], [23.32290649400005, 42.19345474200003], [23.35404968300014, 42.18097686700008], [23.446548463000113, 42.188095093000186], [23.45990943900017, 42.149345398000094], [23.51220893900006, 42.12240982000003]]]}}, {"type": "Feature", "properties": {"name": "BG.9_1_AC", "x": 24.706, "y": 43.1541, "country": "BG"}, "geometry": {"type": "Polygon", "coordinates": [[[24.501304626000092, 42.79003524700016], [24.46699333300006, 42.75093078700007], [24.389408112000126, 42.74709701500012], [24.28066253600008, 42.773628236000036], [24.147863388000076, 42.78245926000011], [24.177633286000116, 42.80387497100003], [24.18639183100015, 42.83446884199998], [24.165430069000024, 42.85189437899999], [24.174257278000027, 42.88956069900007], [24.140506744000106, 42.91613388100018], [24.167015076000155, 42.938617707000105], [24.090648650000105, 42.97139740100016], [24.061126709000177, 43.069259644000056], [23.978096007999966, 43.05792999300013], [23.97371673600003, 43.1118278510001], [24.056560517000037, 43.12048721400009], [24.04855346700009, 43.21627426100008], [24.086717606000093, 43.22441864000007], [24.12853622500006, 43.25746917800018], [24.24921608, 43.25220108100012], [24.379508973000043, 43.294288635999976], [24.47171974200006, 43.238502502000074], [24.635129929000016, 43.23134994500009], [24.659275055000137, 43.27992248600009], [24.686714171000062, 43.258365631000174], [24.717386246000103, 43.291366577000076], [24.80907821699998, 43.326610566], [24.925598145000095, 43.29826736500013], [25.014328003000116, 43.349639893000074], [25.034639359000096, 43.39711380000011], [25.079362870000125, 43.37429428000013], [25.108713151000188, 43.31229782000008], [25.168741226000122, 43.28179550100009], [25.170974731000115, 43.25596618600014], [25.138677597000026, 43.21763229400011], [25.132644652000067, 43.18445587200006], [25.077287673000058, 43.184402467000155], [24.964149474000124, 43.22406387300015], [24.973978042000113, 43.15209960900012], [24.931406022000033, 43.12670135600018], [24.951093675000152, 43.04104614199997], [24.896562577, 43.03880310200003], [24.877681732000042, 43.009189607], [24.873508454000046, 42.95455551200013], [24.892852783000023, 42.89637374800009], [24.950067519000186, 42.87046813900008], [25.004556655000044, 42.814971924000076], [25.036420823000014, 42.772212981999985], [25.036470413000075, 42.73534774700005], [24.939365388000112, 42.70632171700004], [24.811309815000072, 42.74139022800006], [24.69768714800017, 42.73005294899997], [24.68764114400011, 42.75266647400008], [24.63094520500016, 42.78045272800017], [24.501304626000092, 42.79003524700016]]]}}]}